{
    "links": {
        "self": "http://www.neowsapp.com/rest/v1/neo/3545629?api_key=iIulBulltgU6a56xZRHN4H3l9WmuAYTsLGpBGhQ2"
    },
    "id": "3545629",
    "neo_reference_id": "3545629",
    "name": "(2010 RD31)",
    "designation": "2010 RD31",
    "nasa_jpl_url": "http://ssd.jpl.nasa.gov/sbdb.cgi?sstr=3545629",
    "absolute_magnitude_h": 22.5,
    "estimated_diameter": {
        "kilometers": {
            "estimated_diameter_min": 0.0840533402,
            "estimated_diameter_max": 0.1879489824
        },
        "meters": {
            "estimated_diameter_min": 84.0533402073,
            "estimated_diameter_max": 187.9489824394
        },
        "miles": {
            "estimated_diameter_min": 0.0522283081,
            "estimated_diameter_max": 0.1167860472
        },
        "feet": {
            "estimated_diameter_min": 275.7655606856,
            "estimated_diameter_max": 616.6305395464
        }
    },
    "is_potentially_hazardous_asteroid": false,
    "close_approach_data": [
        {
            "close_approach_date": "2010-07-27",
            "close_approach_date_full": "2010-Jul-27 22:11",
            "epoch_date_close_approach": 1280268660000,
            "relative_velocity": {
                "kilometers_per_second": "5.4179639751",
                "kilometers_per_hour": "19504.6703103117",
                "miles_per_hour": "12119.4436158711"
            },
            "miss_distance": {
                "astronomical": "0.1749022311",
                "lunar": "68.0369678979",
                "kilometers": "26165001.230807757",
                "miles": "16258177.8630987666"
            },
            "orbiting_body": "Earth"
        }
    ],
    "orbital_data": {
        "orbit_id": "11",
        "orbit_determination_date": "2017-04-06 08:56:50",
        "first_observation_date": "2010-09-05",
        "last_observation_date": "2010-10-05",
        "data_arc_in_days": 30,
        "observations_used": 29,
        "orbit_uncertainty": "7",
        "minimum_orbit_intersection": ".167708",
        "jupiter_tisserand_invariant": "3.577",
        "epoch_osculation": "2459000.5",
        "eccentricity": ".4459410145815966",
        "semi_major_axis": "2.13189321671468",
        "inclination": "7.216696933175673",
        "ascending_node_longitude": "295.6405703757506",
        "orbital_period": "1136.963698342201",
        "perihelion_distance": "1.181194592673312",
        "perihelion_argument": "11.3571988934122",
        "aphelion_distance": "3.082591840756048",
        "perihelion_time": "2458821.881834508727",
        "mean_anomaly": "56.55636997963722",
        "mean_motion": ".316632800611764",
        "equinox": "J2000",
        "orbit_class": {
            "orbit_class_type": "AMO",
            "orbit_class_description": "Near-Earth asteroid orbits similar to that of 1221 Amor",
            "orbit_class_range": "1.017 AU < q (perihelion) < 1.3 AU"
        }
    },
    "is_sentry_object": false
}